CCSDS_OMM_VERS = 2.0
CREATION_DATE  = 
ORIGINATOR     = 

OBJECT_NAME    = DRAGONFLY
OBJECT_ID      = 1998-067XH
CENTER_NAME    = EARTH
REF_FRAME      = TEME
TIME_SYSTEM    = UTC
MEAN_ELEMENT_THEORY = SGP/SGP4

EPOCH          = 2026-01-19T04:01:09.903072
MEAN_MOTION    = 15.93020939
ECCENTRICITY   = .00079628
INCLINATION    = 51.6184
RA_OF_ASC_NODE = 301.6176
ARG_OF_PERICENTER = 143.4296
MEAN_ANOMALY   = 216.7256

EPHEMERIS_TYPE = 0
CLASSIFICATION_TYPE = U
NORAD_CAT_ID   = 65729
ELEMENT_SET_NO = 999
REV_AT_EPOCH   = 1908
BSTAR          = .15202555E-2
MEAN_MOTION_DOT = .543896E-2
MEAN_MOTION_DDOT = .12862162E-3

CCSDS_OMM_VERS = 2.0
CREATION_DATE  = 
ORIGINATOR     = 

OBJECT_NAME    = 1998-067XK
OBJECT_ID      = 1998-067XK
CENTER_NAME    = EARTH
REF_FRAME      = TEME
TIME_SYSTEM    = UTC
MEAN_ELEMENT_THEORY = SGP/SGP4

EPOCH          = 2026-01-19T03:51:16.962336
MEAN_MOTION    = 15.74934573
ECCENTRICITY   = .00046499
INCLINATION    = 51.6272
RA_OF_ASC_NODE = 306.1591
ARG_OF_PERICENTER = 107.8526
MEAN_ANOMALY   = 252.2980

EPHEMERIS_TYPE = 0
CLASSIFICATION_TYPE = U
NORAD_CAT_ID   = 65731
ELEMENT_SET_NO = 999
REV_AT_EPOCH   = 1902
BSTAR          = .10084478E-2
MEAN_MOTION_DOT = .155068E-2
MEAN_MOTION_DDOT = 0

CCSDS_OMM_VERS = 2.0
CREATION_DATE  = 
ORIGINATOR     = 

OBJECT_NAME    = RSP-03
OBJECT_ID      = 1998-067XL
CENTER_NAME    = EARTH
REF_FRAME      = TEME
TIME_SYSTEM    = UTC
MEAN_ELEMENT_THEORY = SGP/SGP4

EPOCH          = 2026-01-19T11:58:41.257632
MEAN_MOTION    = 15.82194434
ECCENTRICITY   = .00056529
INCLINATION    = 51.6242
RA_OF_ASC_NODE = 302.3833
ARG_OF_PERICENTER = 123.0141
MEAN_ANOMALY   = 237.1406

EPHEMERIS_TYPE = 0
CLASSIFICATION_TYPE = U
NORAD_CAT_ID   = 65732
ELEMENT_SET_NO = 999
REV_AT_EPOCH   = 1911
BSTAR          = .11930872E-2
MEAN_MOTION_DOT = .257901E-2
MEAN_MOTION_DDOT = 0

CCSDS_OMM_VERS = 2.0
CREATION_DATE  = 
ORIGINATOR     = 

OBJECT_NAME    = GHS-01
OBJECT_ID      = 1998-067XM
CENTER_NAME    = EARTH
REF_FRAME      = TEME
TIME_SYSTEM    = UTC
MEAN_ELEMENT_THEORY = SGP/SGP4

EPOCH          = 2026-01-19T03:16:33.402144
MEAN_MOTION    = 16.14745493
ECCENTRICITY   = .00074689
INCLINATION    = 51.6184
RA_OF_ASC_NODE = 299.1298
ARG_OF_PERICENTER = 175.9019
MEAN_ANOMALY   = 184.2060

EPHEMERIS_TYPE = 0
CLASSIFICATION_TYPE = U
NORAD_CAT_ID   = 65733
ELEMENT_SET_NO = 999
REV_AT_EPOCH   = 1912
BSTAR          = .16911954E-2
MEAN_MOTION_DOT = .2101865E-1
MEAN_MOTION_DDOT = .47330108E-2

CCSDS_OMM_VERS = 2.0
CREATION_DATE  = 
ORIGINATOR     = 

OBJECT_NAME    = YOTSUBA-KULOVER
OBJECT_ID      = 1998-067XN
CENTER_NAME    = EARTH
REF_FRAME      = TEME
TIME_SYSTEM    = UTC
MEAN_ELEMENT_THEORY = SGP/SGP4

EPOCH          = 2026-01-19T04:40:20.898048
MEAN_MOTION    = 15.65565283
ECCENTRICITY   = .00043049
INCLINATION    = 51.6288
RA_OF_ASC_NODE = 310.9023
ARG_OF_PERICENTER = 127.8963
MEAN_ANOMALY   = 232.2422

EPHEMERIS_TYPE = 0
CLASSIFICATION_TYPE = U
NORAD_CAT_ID   = 65941
ELEMENT_SET_NO = 999
REV_AT_EPOCH   = 1571
BSTAR          = .95423767E-3
MEAN_MOTION_DOT = .98446E-3
MEAN_MOTION_DDOT = 0

CCSDS_OMM_VERS = 2.0
CREATION_DATE  = 
ORIGINATOR     = 

OBJECT_NAME    = BOTAN
OBJECT_ID      = 1998-067XP
CENTER_NAME    = EARTH
REF_FRAME      = TEME
TIME_SYSTEM    = UTC
MEAN_ELEMENT_THEORY = SGP/SGP4

EPOCH          = 2026-01-19T04:51:49.694400
MEAN_MOTION    = 15.73080805
ECCENTRICITY   = .00050187
INCLINATION    = 51.6262
RA_OF_ASC_NODE = 308.6903
ARG_OF_PERICENTER = 131.6074
MEAN_ANOMALY   = 228.5355

EPHEMERIS_TYPE = 0
CLASSIFICATION_TYPE = U
NORAD_CAT_ID   = 65942
ELEMENT_SET_NO = 999
REV_AT_EPOCH   = 1574
BSTAR          = .13085706E-2
MEAN_MOTION_DOT = .186622E-2
MEAN_MOTION_DDOT = 0

CCSDS_OMM_VERS = 2.0
CREATION_DATE  = 
ORIGINATOR     = 

OBJECT_NAME    = E-KAGAKU-1
OBJECT_ID      = 1998-067XQ
CENTER_NAME    = EARTH
REF_FRAME      = TEME
TIME_SYSTEM    = UTC
MEAN_ELEMENT_THEORY = SGP/SGP4

EPOCH          = 2026-01-19T12:19:52.961952
MEAN_MOTION    = 15.65599939
ECCENTRICITY   = .00028879
INCLINATION    = 51.6300
RA_OF_ASC_NODE = 309.2914
ARG_OF_PERICENTER = 132.5867
MEAN_ANOMALY   = 227.5372

EPHEMERIS_TYPE = 0
CLASSIFICATION_TYPE = U
NORAD_CAT_ID   = 65943
ELEMENT_SET_NO = 999
REV_AT_EPOCH   = 1576
BSTAR          = .9405531E-3
MEAN_MOTION_DOT = .97125E-3
MEAN_MOTION_DDOT = 0

CCSDS_OMM_VERS = 2.0
CREATION_DATE  = 
ORIGINATOR     = 

OBJECT_NAME    = HRC MONOBLOCK CAMERA
OBJECT_ID      = 1998-067XR
CENTER_NAME    = EARTH
REF_FRAME      = TEME
TIME_SYSTEM    = UTC
MEAN_ELEMENT_THEORY = SGP/SGP4

EPOCH          = 2026-01-19T05:36:20.686464
MEAN_MOTION    = 15.56974945
ECCENTRICITY   = .00009474
INCLINATION    = 51.6308
RA_OF_ASC_NODE = 314.1639
ARG_OF_PERICENTER = 22.3835
MEAN_ANOMALY   = 337.7198

EPHEMERIS_TYPE = 0
CLASSIFICATION_TYPE = U
NORAD_CAT_ID   = 66052
ELEMENT_SET_NO = 999
REV_AT_EPOCH   = 1467
BSTAR          = .61403477E-3
MEAN_MOTION_DOT = .44906E-3
MEAN_MOTION_DDOT = 0

CCSDS_OMM_VERS = 2.0
CREATION_DATE  = 
ORIGINATOR     = 

OBJECT_NAME    = HTV-X1
OBJECT_ID      = 2025-241A
CENTER_NAME    = EARTH
REF_FRAME      = TEME
TIME_SYSTEM    = UTC
MEAN_ELEMENT_THEORY = SGP/SGP4

EPOCH          = 2026-01-19T12:43:22.274688
MEAN_MOTION    = 15.49410172
ECCENTRICITY   = .00078054
INCLINATION    = 51.6334
RA_OF_ASC_NODE = 315.3913
ARG_OF_PERICENTER = 35.9319
MEAN_ANOMALY   = 324.2193

EPHEMERIS_TYPE = 0
CLASSIFICATION_TYPE = U
NORAD_CAT_ID   = 66174
ELEMENT_SET_NO = 999
REV_AT_EPOCH   = 51
BSTAR          = .23849396E-3
MEAN_MOTION_DOT = .1291E-3
MEAN_MOTION_DDOT = 0

CCSDS_OMM_VERS = 2.0
CREATION_DATE  = 
ORIGINATOR     = 

OBJECT_NAME    = SZ-21 MODULE
OBJECT_ID      = 2025-246C
CENTER_NAME    = EARTH
REF_FRAME      = TEME
TIME_SYSTEM    = UTC
MEAN_ELEMENT_THEORY = SGP/SGP4

EPOCH          = 2026-01-19T09:57:42.650208
MEAN_MOTION    = 15.64747704
ECCENTRICITY   = .00027346
INCLINATION    = 41.4760
RA_OF_ASC_NODE = 145.8311
ARG_OF_PERICENTER = 203.2417
MEAN_ANOMALY   = 156.8300

EPHEMERIS_TYPE = 0
CLASSIFICATION_TYPE = U
NORAD_CAT_ID   = 66515
ELEMENT_SET_NO = 999
REV_AT_EPOCH   = 1034
BSTAR          = .32054877E-3
MEAN_MOTION_DOT = .31868E-3
MEAN_MOTION_DDOT = 0

CCSDS_OMM_VERS = 2.0
CREATION_DATE  = 
ORIGINATOR     = 

OBJECT_NAME    = SHENZHOU-22
OBJECT_ID      = 2025-272A
CENTER_NAME    = EARTH
REF_FRAME      = TEME
TIME_SYSTEM    = UTC
MEAN_ELEMENT_THEORY = SGP/SGP4

EPOCH          = 2026-01-19T00:56:12.421824
MEAN_MOTION    = 15.60669378
ECCENTRICITY   = .0010928
INCLINATION    = 41.4662
RA_OF_ASC_NODE = 149.9978
ARG_OF_PERICENTER = 313.3598
MEAN_ANOMALY   = 46.6329

EPHEMERIS_TYPE = 0
CLASSIFICATION_TYPE = U
NORAD_CAT_ID   = 66645
ELEMENT_SET_NO = 999
REV_AT_EPOCH   = 26764
BSTAR          = .25083213E-3
MEAN_MOTION_DOT = .21178E-3
MEAN_MOTION_DDOT = 0

CCSDS_OMM_VERS = 2.0
CREATION_DATE  = 
ORIGINATOR     = 

OBJECT_NAME    = SOYUZ-MS 28
OBJECT_ID      = 2025-275A
CENTER_NAME    = EARTH
REF_FRAME      = TEME
TIME_SYSTEM    = UTC
MEAN_ELEMENT_THEORY = SGP/SGP4

EPOCH          = 2026-01-19T12:43:22.274688
MEAN_MOTION    = 15.49410172
ECCENTRICITY   = .00078054
INCLINATION    = 51.6334
RA_OF_ASC_NODE = 315.3913
ARG_OF_PERICENTER = 35.9319
MEAN_ANOMALY   = 324.2193

EPHEMERIS_TYPE = 0
CLASSIFICATION_TYPE = U
NORAD_CAT_ID   = 66664
ELEMENT_SET_NO = 999
REV_AT_EPOCH   = 128
BSTAR          = .23849396E-3
MEAN_MOTION_DOT = .1291E-3
MEAN_MOTION_DDOT = 0

